#aV2010  2  5  0  0   .00000000      96 DD+AD WGS84 FIT  NGA
## 1569 432000.00000000   900.00000000 55232  .0000000000000
+   32     1  2  3  4  5  6  7  8  9 10 11 12 13 14 15 16 17
+         18 19 20 21 22 23 24 25 26 27 28 29 30 31 32  0  0
+          0  0  0  0  0  0  0  0  0  0  0  0  0  0  0  0  0
+          0  0  0  0  0  0  0  0  0  0  0  0  0  0  0  0  0
+          0  0  0  0  0  0  0  0  0  0  0  0  0  0  0  0  0
++         0  0  0  0  0  0  0  0  0  0  0  0  0  0  0  0  0
++         0  0  0  0  0  0  0  0  0  0  0  0  0  0  0  0  0
++         0  0  0  0  0  0  0  0  0  0  0  0  0  0  0  0  0
++         0  0  0  0  0  0  0  0  0  0  0  0  0  0  0  0  0
++         0  0  0  0  0  0  0  0  0  0  0  0  0  0  0  0  0
%c cc cc ccc ccc cccc cccc cccc cccc ccccc ccccc ccccc ccccc
%c cc cc ccc ccc cccc cccc cccc cccc ccccc ccccc ccccc ccccc
%f  0.0000000  0.000000000  0.00000000000  0.000000000000000
%f  0.0000000  0.000000000  0.00000000000  0.000000000000000
%i    0    0    0    0      0      0      0      0         0
%i    0    0    0    0      0      0      0      0         0
/*      NGA, ST. LOUIS,MO.                                  
/*   EPHEMERIS COMPUTED FROM  3 DAYS OF DATA                
/* CCCCCCCCCCCCCCCCCCCCCCCCCCCCCCCCCCCCCCCCCCCCCCCCCCCCCCCCC
/* CCCCCCCCCCCCCCCCCCCCCCCCCCCCCCCCCCCCCCCCCCCCCCCCCCCCCCCCC
*  2010  2  5 12  0   .00000000                                                 
P  1 -18677.373839  18746.283123   1306.108255    -86.020118                    
V  1   -853.733565  -3243.350507  31837.216237      -.036101                    
P  2 -13952.841180 -20775.758573  -9587.134939    223.377099                    
V  2  -1008.428440 -12260.439397  27762.114373       .041464                    
P  3  21977.562849  10811.985613 -11044.118876    511.676111                    
V  3 -13702.300193   1442.609058 -26368.500445       .050893                    
P  4  -5539.007472 -25606.799634   2746.501852      7.643877                    
V  4   4717.771673   2492.895178  31242.792418       .091803                    
P  5 -12815.069384  -8525.226654 -21670.633502    -10.461788                    
V  5  18584.774958 -20227.646853  -2949.901784       .028787                    
P  6  18991.067716  13223.869401 -12958.609465    253.402923                    
V  6 -17004.217296   -216.225668 -24680.037497      -.045558                    
P  7   9288.452092 -15450.076141 -19459.246447      3.282735                    
V  7   8269.647875  23325.962688 -14729.026849      -.005769                    
P  8   1873.953767 -23862.022993 -10936.709363      2.946939                    
V  8   5056.768401  13204.837420 -28496.610002       .004445                    
P  9 -15897.285822  -5169.076280  19991.269680    104.243864                    
V  9  -7585.081574 -25740.218509 -12248.152900       .023022                    
P 10  -7558.747509 -13950.793687 -21431.769323    -34.656327                    
V 10  19338.683772 -18672.566787   5725.601672      -.010618                    
P 11  17775.682170   -913.843693  19537.971500    -43.646450                    
V 11  11539.768096  22906.957685  -8940.034942      -.021621                    
P 12 -20916.535870   7462.539932  14522.926883   -153.962376                    
V 12  11271.912443 -14650.007893  23989.765487       .048150                    
P 13  17405.210161  -7450.890319 -18762.170826    306.584190                    
V 13  22182.694939   7727.106793  17618.709105      -.000763                    
P 14    764.770629  15237.183457  21893.834560      8.302851                    
V 14 -26426.022856  -7161.590697   5828.362027       .043444                    
P 15 -25558.545657  -7124.193790  -2137.205940   -308.823427                    
V 15   3290.953464  -2250.751325 -31399.455326       .027567                    
P 16   6716.672914  14049.860330 -21431.072500    -38.184650                    
V 16 -19675.744926  18990.320895   6521.948710      -.040530                    
P 17  -2494.976436 -15959.663321  21203.439541    127.262812                    
V 17  25985.071567   6108.617060   7481.107629       .032105                    
P 18 -17169.727423  19880.847814   2405.227135     46.837930                    
V 18  -4671.887742   -688.481269 -31298.062259       .026040                    
P 19  25423.878715   8219.634352   -199.351549    -13.811940                    
V 19  -1085.100605   2447.639280 -31500.972509      -.023131                    
P 20  21097.568247 -11417.728380  11201.782602     61.903576                    
V 20  -7311.117267  12890.157475  26644.095966      -.007674                    
P 21  -6993.304343  19291.897278 -16213.540818    -38.618614                    
V 21  -8642.228821 -19882.162402 -20191.325405      -.024929                    
P 22  -8121.409957  21718.946755  13042.366015    179.834294                    
V 22 -13609.119468   9580.361902 -24805.961024      -.008952                    
P 23  24661.216885  -1223.090432 -10210.450770    380.674665                    
V 23  11972.508101   4993.905979  28098.170876      -.009332                    
P 24 -12892.200971  10134.261760 -20865.137227    259.811998                    
V 24  -7059.821568 -25720.477383  -7845.921001       .031259                    
P 25  11969.814494  -9404.248338 -21442.834002     93.386726                    
V 25  10816.118126  25815.642939  -5007.916764       .070991                    
P 26 -10328.398535  11361.746516  21200.402503    -15.701382                    
V 26 -26757.903086  -8428.080635  -7865.535138      -.034315                    
P 27 -16913.417352  -7383.074375  19836.609532    123.471368                    
V 27  -7246.148527 -22502.066753 -14987.138544       .033479                    
P 28  10299.670599 -21573.729101  11702.669655    -22.591892                    
V 28  11699.482707  -8435.835420 -27222.287550       .006303                    
P 29 -20159.260206   6222.762222 -16024.549034     95.636441                    
V 29 -19333.428378  -7174.797000  21448.087752       .029949                    
P 30 -19628.261934  16868.166770   5453.458594    216.841857                    
V 30   2563.744127  -7602.930959  30633.617745       .032684                    
P 31   6930.098278  25532.541549   1041.160456    -52.662363                    
V 31  -2686.222111   -303.771924  32152.929954       .014439                    
P 32  19816.445618   -984.078023  17855.292040    101.707244                    
V 32 -15303.371064  16027.810140  18551.791071      -.082432                    
EOF
